[
  {
    "COMMENT": "GENERATED VIA SPACETRACK.ORG API",
    "ORIGINATOR": "18 SPCS",
    "NORAD_CAT_ID": "20436",
    "OBJECT_NAME": "SPOT 2",
    "OBJECT_TYPE": "PAYLOAD",
    "CLASSIFICATION_TYPE": "U",
    "INTLDES": "90005A",
    "EPOCH": "2023-06-02 04:51:24",
    "EPOCH_MICROSECONDS": "88032",
    "MEAN_MOTION": "14.68077285",
    "ECCENTRICITY": "0.0140757",
    "INCLINATION": "98.6633",
    "RA_OF_ASC_NODE": "223.6229",
    "ARG_OF_PERICENTER": "330.9075",
    "MEAN_ANOMALY": "28.4337",
    "EPHEMERIS_TYPE": "0",
    "ELEMENT_SET_NO": "999",
    "REV_AT_EPOCH": "75199",
    "BSTAR": "0.00013248",
    "MEAN_MOTION_DOT": "0.00000817",
    "MEAN_MOTION_DDOT": "0",
    "FILE": "3922932",
    "TLE_LINE0": "0 SPOT 2",
    "TLE_LINE1": "1 20436U 90005A   23153.20236213  .00000817  00000-0  13248-3 0  9999",
    "TLE_LINE2": "2 20436  98.6633 223.6229 0140757 330.9075  28.4337 14.68077285751995",
    "OBJECT_ID": "1990-005A",
    "OBJECT_NUMBER": "20436",
    "SEMIMAJOR_AXIS": "7045.350",
    "PERIOD": "98.087",
    "APOGEE": "766.383",
    "PERIGEE": "568.047",
    "DECAYED": "0"
  },
  {
    "COMMENT": "GENERATED VIA SPACETRACK.ORG API",
    "ORIGINATOR": "18 SPCS",
    "NORAD_CAT_ID": "20436",
    "OBJECT_NAME": "SPOT 2",
    "OBJECT_TYPE": "PAYLOAD",
    "CLASSIFICATION_TYPE": "U",
    "INTLDES": "90005A",
    "EPOCH": "2023-06-02 19:34:41",
    "EPOCH_MICROSECONDS": "806560",
    "MEAN_MOTION": "14.6807883",
    "ECCENTRICITY": "0.0140716",
    "INCLINATION": "98.6633",
    "RA_OF_ASC_NODE": "224.2723",
    "ARG_OF_PERICENTER": "328.9908",
    "MEAN_ANOMALY": "30.3042",
    "EPHEMERIS_TYPE": "0",
    "ELEMENT_SET_NO": "999",
    "REV_AT_EPOCH": "75206",
    "BSTAR": "0.00014334",
    "MEAN_MOTION_DOT": "0.0000089",
    "MEAN_MOTION_DDOT": "0",
    "FILE": "3923570",
    "TLE_LINE0": "0 SPOT 2",
    "TLE_LINE1": "1 20436U 90005A   23153.81576165  .00000890  00000-0  14334-3 0  9997",
    "TLE_LINE2": "2 20436  98.6633 224.2723 0140716 328.9908  30.3042 14.68078830752069",
    "OBJECT_ID": "1990-005A",
    "OBJECT_NUMBER": "20436",
    "SEMIMAJOR_AXIS": "7045.345",
    "PERIOD": "98.087",
    "APOGEE": "766.349",
    "PERIGEE": "568.071",
    "DECAYED": "0"
  },
  {
    "COMMENT": "GENERATED VIA SPACETRACK.ORG API",
    "ORIGINATOR": "18 SPCS",
    "NORAD_CAT_ID": "20436",
    "OBJECT_NAME": "SPOT 2",
    "OBJECT_TYPE": "PAYLOAD",
    "CLASSIFICATION_TYPE": "U",
    "INTLDES": "90005A",
    "EPOCH": "2023-06-03 03:45:24",
    "EPOCH_MICROSECONDS": "963552",
    "MEAN_MOTION": "14.68079546",
    "ECCENTRICITY": "0.0140697",
    "INCLINATION": "98.6633",
    "RA_OF_ASC_NODE": "224.6331",
    "ARG_OF_PERICENTER": "327.9222",
    "MEAN_ANOMALY": "31.3475",
    "EPHEMERIS_TYPE": "0",
    "ELEMENT_SET_NO": "999",
    "REV_AT_EPOCH": "75211",
    "BSTAR": "0.0001442",
    "MEAN_MOTION_DOT": "0.00000895",
    "MEAN_MOTION_DDOT": "0",
    "FILE": "3924076",
    "TLE_LINE0": "0 SPOT 2",
    "TLE_LINE1": "1 20436U 90005A   23154.15653893  .00000895  00000-0  14420-3 0  9990",
    "TLE_LINE2": "2 20436  98.6633 224.6331 0140697 327.9222  31.3475 14.68079546752116",
    "OBJECT_ID": "1990-005A",
    "OBJECT_NUMBER": "20436",
    "SEMIMAJOR_AXIS": "7045.343",
    "PERIOD": "98.087",
    "APOGEE": "766.333",
    "PERIGEE": "568.082",
    "DECAYED": "0"
  },
  {
    "COMMENT": "GENERATED VIA SPACETRACK.ORG API",
    "ORIGINATOR": "18 SPCS",
    "NORAD_CAT_ID": "20436",
    "OBJECT_NAME": "SPOT 2",
    "OBJECT_TYPE": "PAYLOAD",
    "CLASSIFICATION_TYPE": "U",
    "INTLDES": "90005A",
    "EPOCH": "2023-06-03 18:28:42",
    "EPOCH_MICROSECONDS": "664800",
    "MEAN_MOTION": "14.68080414",
    "ECCENTRICITY": "0.0140661",
    "INCLINATION": "98.6633",
    "RA_OF_ASC_NODE": "225.2824",
    "ARG_OF_PERICENTER": "326.0016",
    "MEAN_ANOMALY": "33.2232",
    "EPHEMERIS_TYPE": "0",
    "ELEMENT_SET_NO": "999",
    "REV_AT_EPOCH": "75222",
    "BSTAR": "0.00013796",
    "MEAN_MOTION_DOT": "0.00000853",
    "MEAN_MOTION_DDOT": "0",
    "FILE": "3924253",
    "TLE_LINE0": "0 SPOT 2",
    "TLE_LINE1": "1 20436U 90005A   23154.76993825  .00000853  00000-0  13796-3 0  9998",
    "TLE_LINE2": "2 20436  98.6633 225.2824 0140661 326.0016  33.2232 14.68080414752222",
    "OBJECT_ID": "1990-005A",
    "OBJECT_NUMBER": "20436",
    "SEMIMAJOR_AXIS": "7045.340",
    "PERIOD": "98.087",
    "APOGEE": "766.305",
    "PERIGEE": "568.104",
    "DECAYED": "0"
  },
  {
    "COMMENT": "GENERATED VIA SPACETRACK.ORG API",
    "ORIGINATOR": "18 SPCS",
    "NORAD_CAT_ID": "20436",
    "OBJECT_NAME": "SPOT 2",
    "OBJECT_TYPE": "PAYLOAD",
    "CLASSIFICATION_TYPE": "U",
    "INTLDES": "90005A",
    "EPOCH": "2023-06-03 21:44:59",
    "EPOCH_MICROSECONDS": "922240",
    "MEAN_MOTION": "14.68080703",
    "ECCENTRICITY": "0.0140653",
    "INCLINATION": "98.6633",
    "RA_OF_ASC_NODE": "225.4268",
    "ARG_OF_PERICENTER": "325.5761",
    "MEAN_ANOMALY": "33.639",
    "EPHEMERIS_TYPE": "0",
    "ELEMENT_SET_NO": "999",
    "REV_AT_EPOCH": "75222",
    "BSTAR": "0.000139",
    "MEAN_MOTION_DOT": "0.0000086",
    "MEAN_MOTION_DDOT": "0",
    "FILE": "3924324",
    "TLE_LINE0": "0 SPOT 2",
    "TLE_LINE1": "1 20436U 90005A   23154.90624910  .00000860  00000-0  13900-3 0  9995",
    "TLE_LINE2": "2 20436  98.6633 225.4268 0140653 325.5761  33.6390 14.68080703752228",
    "OBJECT_ID": "1990-005A",
    "OBJECT_NUMBER": "20436",
    "SEMIMAJOR_AXIS": "7045.339",
    "PERIOD": "98.087",
    "APOGEE": "766.299",
    "PERIGEE": "568.109",
    "DECAYED": "0"
  },
  {
    "COMMENT": "GENERATED VIA SPACETRACK.ORG API",
    "ORIGINATOR": "18 SPCS",
    "NORAD_CAT_ID": "20436",
    "OBJECT_NAME": "SPOT 2",
    "OBJECT_TYPE": "PAYLOAD",
    "CLASSIFICATION_TYPE": "U",
    "INTLDES": "90005A",
    "EPOCH": "2023-06-04 09:12:00",
    "EPOCH_MICROSECONDS": "323712",
    "MEAN_MOTION": "14.68081531",
    "ECCENTRICITY": "0.0140625",
    "INCLINATION": "98.6633",
    "RA_OF_ASC_NODE": "225.9319",
    "ARG_OF_PERICENTER": "324.08",
    "MEAN_ANOMALY": "35.101",
    "EPHEMERIS_TYPE": "0",
    "ELEMENT_SET_NO": "999",
    "REV_AT_EPOCH": "75229",
    "BSTAR": "0.00013679",
    "MEAN_MOTION_DOT": "0.00000846",
    "MEAN_MOTION_DDOT": "0",
    "FILE": "3924842",
    "TLE_LINE0": "0 SPOT 2",
    "TLE_LINE1": "1 20436U 90005A   23155.38333708  .00000846  00000-0  13679-3 0  9997",
    "TLE_LINE2": "2 20436  98.6633 225.9319 0140625 324.0800  35.1010 14.68081531752290",
    "OBJECT_ID": "1990-005A",
    "OBJECT_NUMBER": "20436",
    "SEMIMAJOR_AXIS": "7045.336",
    "PERIOD": "98.087",
    "APOGEE": "766.276",
    "PERIGEE": "568.126",
    "DECAYED": "0"
  },
  {
    "COMMENT": "GENERATED VIA SPACETRACK.ORG API",
    "ORIGINATOR": "18 SPCS",
    "NORAD_CAT_ID": "20436",
    "OBJECT_NAME": "SPOT 2",
    "OBJECT_TYPE": "PAYLOAD",
    "CLASSIFICATION_TYPE": "U",
    "INTLDES": "90005A",
    "EPOCH": "2023-06-04 19:00:52",
    "EPOCH_MICROSECONDS": "72704",
    "MEAN_MOTION": "14.68082119",
    "ECCENTRICITY": "0.0140605",
    "INCLINATION": "98.6633",
    "RA_OF_ASC_NODE": "226.3647",
    "ARG_OF_PERICENTER": "322.7981",
    "MEAN_ANOMALY": "36.3543",
    "EPHEMERIS_TYPE": "0",
    "ELEMENT_SET_NO": "999",
    "REV_AT_EPOCH": "75237",
    "BSTAR": "0.00013007",
    "MEAN_MOTION_DOT": "0.00000801",
    "MEAN_MOTION_DDOT": "0",
    "FILE": "3925096",
    "TLE_LINE0": "0 SPOT 2",
    "TLE_LINE1": "1 20436U 90005A   23155.79226936  .00000801  00000-0  13007-3 0  9992",
    "TLE_LINE2": "2 20436  98.6633 226.3647 0140605 322.7981  36.3543 14.68082119752378",
    "OBJECT_ID": "1990-005A",
    "OBJECT_NUMBER": "20436",
    "SEMIMAJOR_AXIS": "7045.334",
    "PERIOD": "98.087",
    "APOGEE": "766.260",
    "PERIGEE": "568.138",
    "DECAYED": "0"
  },
  {
    "COMMENT": "GENERATED VIA SPACETRACK.ORG API",
    "ORIGINATOR": "18 SPCS",
    "NORAD_CAT_ID": "20436",
    "OBJECT_NAME": "SPOT 2",
    "OBJECT_TYPE": "PAYLOAD",
    "CLASSIFICATION_TYPE": "U",
    "INTLDES": "90005A",
    "EPOCH": "2023-06-04 22:17:09",
    "EPOCH_MICROSECONDS": "307680",
    "MEAN_MOTION": "14.6808241",
    "ECCENTRICITY": "0.0140599",
    "INCLINATION": "98.6633",
    "RA_OF_ASC_NODE": "226.509",
    "ARG_OF_PERICENTER": "322.3653",
    "MEAN_ANOMALY": "36.7775",
    "EPHEMERIS_TYPE": "0",
    "ELEMENT_SET_NO": "999",
    "REV_AT_EPOCH": "75237",
    "BSTAR": "0.00012986",
    "MEAN_MOTION_DOT": "0.00000799",
    "MEAN_MOTION_DDOT": "0",
    "FILE": "3925173",
    "TLE_LINE0": "0 SPOT 2",
    "TLE_LINE1": "1 20436U 90005A   23155.92857995  .00000799  00000-0  12986-3 0  9993",
    "TLE_LINE2": "2 20436  98.6633 226.5090 0140599 322.3653  36.7775 14.68082410752371",
    "OBJECT_ID": "1990-005A",
    "OBJECT_NUMBER": "20436",
    "SEMIMAJOR_AXIS": "7045.333",
    "PERIOD": "98.087",
    "APOGEE": "766.255",
    "PERIGEE": "568.142",
    "DECAYED": "0"
  },
  {
    "COMMENT": "GENERATED VIA SPACETRACK.ORG API",
    "ORIGINATOR": "18 SPCS",
    "NORAD_CAT_ID": "20436",
    "OBJECT_NAME": "SPOT 2",
    "OBJECT_TYPE": "PAYLOAD",
    "CLASSIFICATION_TYPE": "U",
    "INTLDES": "90005A",
    "EPOCH": "2023-06-05 11:22:18",
    "EPOCH_MICROSECONDS": "279552",
    "MEAN_MOTION": "14.68083441",
    "ECCENTRICITY": "0.0140572",
    "INCLINATION": "98.6633",
    "RA_OF_ASC_NODE": "227.0862",
    "ARG_OF_PERICENTER": "320.6515",
    "MEAN_ANOMALY": "38.454",
    "EPHEMERIS_TYPE": "0",
    "ELEMENT_SET_NO": "999",
    "REV_AT_EPOCH": "75245",
    "BSTAR": "0.00012785",
    "MEAN_MOTION_DOT": "0.00000786",
    "MEAN_MOTION_DDOT": "0",
    "FILE": "3925691",
    "TLE_LINE0": "0 SPOT 2",
    "TLE_LINE1": "1 20436U 90005A   23156.47382268  .00000786  00000-0  12785-3 0  9993",
    "TLE_LINE2": "2 20436  98.6633 227.0862 0140572 320.6515  38.4540 14.68083441752456",
    "OBJECT_ID": "1990-005A",
    "OBJECT_NUMBER": "20436",
    "SEMIMAJOR_AXIS": "7045.330",
    "PERIOD": "98.087",
    "APOGEE": "766.233",
    "PERIGEE": "568.158",
    "DECAYED": "0"
  }
]